start=new Date('2022-02-13T00:00:00.000Z').valueOf();
sats=[{"MEAN_MOTION_DDOT":"0.0000000000000","OBJECT_ID":"2020-006AE","BSTAR":"0.00021259000000","RA_OF_ASC_NODE":"98.4236","MEAN_ELEMENT_THEORY":"SGP4","OBJECT_TYPE":"PAYLOAD","COUNTRY_CODE":"US","MEAN_MOTION_DOT":"0.00002887","RCS_SIZE":"LARGE","GP_ID":"195818459","DECAY_DATE":null,"NORAD_CAT_ID":"45072","ECCENTRICITY":"0.00016930","EPOCH":"2022-02-12T11:45:33.785568","EPHEMERIS_TYPE":"0","PERIAPSIS":"546.006","TLE_LINE1":"1 45072U 20006AE  22043.48997437  .00002887  00000-0  21259-3 0  9995","CLASSIFICATION_TYPE":"U","FILE":"3298493","APOAPSIS":"548.351","ARG_OF_PERICENTER":"54.8909","OBJECT_NAME":"STARLINK-1168","SITE":"AFETR","INCLINATION":"53.0546","REV_AT_EPOCH":"11273","ELEMENT_SET_NO":"999","PERIOD":"95.591","MEAN_MOTION":"15.06411301","TIME_SYSTEM":"UTC","TLE_LINE2":"2 45072  53.0546  98.4236 0001693  54.8909 305.2238 15.06411301112738","MEAN_ANOMALY":"305.2238","SEMIMAJOR_AXIS":"6925.314","CENTER_NAME":"EARTH","LAUNCH_DATE":"2020-01-29","REF_FRAME":"TEME"},{"INCLINATION":"53.0535","SITE":"AFETR","REV_AT_EPOCH":"11273","MEAN_MOTION":"15.06416621","ELEMENT_SET_NO":"999","PERIOD":"95.591","TIME_SYSTEM":"UTC","SEMIMAJOR_AXIS":"6925.298","TLE_LINE2":"2 45073  53.0535  98.3045 0001457  62.1806 297.9330 15.06416621112730","CENTER_NAME":"EARTH","MEAN_ANOMALY":"297.9330","LAUNCH_DATE":"2020-01-29","REF_FRAME":"TEME","ECCENTRICITY":"0.00014570","PERIAPSIS":"546.154","EPHEMERIS_TYPE":"0","TLE_LINE1":"1 45073U 20006AF  22043.51577635 -.00000800  00000-0 -34776-4 0  9998","EPOCH":"2022-02-12T12:22:43.076640","FILE":"3298493","CLASSIFICATION_TYPE":"U","ARG_OF_PERICENTER":"62.1806","OBJECT_NAME":"STARLINK-1170","APOAPSIS":"548.172","RA_OF_ASC_NODE":"98.3045","OBJECT_TYPE":"PAYLOAD","COUNTRY_CODE":"US","MEAN_ELEMENT_THEORY":"SGP4","MEAN_MOTION_DOT":"-0.00000800","GP_ID":"195818709","RCS_SIZE":"LARGE","NORAD_CAT_ID":"45073","DECAY_DATE":null,"MEAN_MOTION_DDOT":"0.0000000000000","OBJECT_ID":"2020-006AF","BSTAR":"-0.00003477600000"},{"LAUNCH_DATE":"2020-01-29","REF_FRAME":"TEME","SEMIMAJOR_AXIS":"6925.326","TLE_LINE2":"2 45074  53.0544  98.3948 0001384  72.2380 287.8760 15.06407328112730","CENTER_NAME":"EARTH","MEAN_ANOMALY":"287.8760","TIME_SYSTEM":"UTC","MEAN_MOTION":"15.06407328","PERIOD":"95.592","ELEMENT_SET_NO":"999","REV_AT_EPOCH":"11273","INCLINATION":"53.0544","SITE":"AFETR","OBJECT_NAME":"STARLINK-1172","ARG_OF_PERICENTER":"72.2380","APOAPSIS":"548.150","CLASSIFICATION_TYPE":"U","FILE":"3298493","TLE_LINE1":"1 45074U 20006AG  22043.50103561 -.00000740  00000-0 -30749-4 0  9990","PERIAPSIS":"546.233","EPHEMERIS_TYPE":"0","EPOCH":"2022-02-12T12:01:29.476704","ECCENTRICITY":"0.00013840","NORAD_CAT_ID":"45074","DECAY_DATE":null,"GP_ID":"195817960","RCS_SIZE":"LARGE","MEAN_MOTION_DOT":"-0.00000740","COUNTRY_CODE":"US","OBJECT_TYPE":"PAYLOAD","MEAN_ELEMENT_THEORY":"SGP4","RA_OF_ASC_NODE":"98.3948","OBJECT_ID":"2020-006AG","BSTAR":"-0.00003074900000","MEAN_MOTION_DDOT":"0.0000000000000"},{"MEAN_ELEMENT_THEORY":"SGP4","COUNTRY_CODE":"US","OBJECT_TYPE":"PAYLOAD","RA_OF_ASC_NODE":"98.2340","DECAY_DATE":null,"NORAD_CAT_ID":"45075","GP_ID":"195819711","RCS_SIZE":"LARGE","MEAN_MOTION_DOT":"0.00001367","MEAN_MOTION_DDOT":"0.0000000000000","OBJECT_ID":"2020-006AH","BSTAR":"0.00011062000000","PERIOD":"95.591","ELEMENT_SET_NO":"999","MEAN_MOTION":"15.06412768","REV_AT_EPOCH":"11274","INCLINATION":"53.0527","SITE":"AFETR","REF_FRAME":"TEME","LAUNCH_DATE":"2020-01-29","CENTER_NAME":"EARTH","TLE_LINE2":"2 45075  53.0527  98.2340 0001356  72.4503 287.6634 15.06412768112748","SEMIMAJOR_AXIS":"6925.309","MEAN_ANOMALY":"287.6634","TIME_SYSTEM":"UTC","EPOCH":"2022-02-12T12:49:15.782880","TLE_LINE1":"1 45075U 20006AH  22043.53421045  .00001367  00000-0  11062-3 0  9994","PERIAPSIS":"546.235","EPHEMERIS_TYPE":"0","ECCENTRICITY":"0.00013560","APOAPSIS":"548.113","ARG_OF_PERICENTER":"72.4503","OBJECT_NAME":"STARLINK-1174","CLASSIFICATION_TYPE":"U","FILE":"3298493"},{"FILE":"3298493","CLASSIFICATION_TYPE":"U","ARG_OF_PERICENTER":"72.4787","OBJECT_NAME":"STARLINK-1180","APOAPSIS":"548.179","ECCENTRICITY":"0.00013950","EPHEMERIS_TYPE":"0","PERIAPSIS":"546.247","TLE_LINE1":"1 45076U 20006AJ  22043.47524520  .00001763  00000-0  13721-3 0  9994","EPOCH":"2022-02-12T11:24:21.185280","TIME_SYSTEM":"UTC","MEAN_ANOMALY":"287.6354","TLE_LINE2":"2 45076  53.0538  98.4933 0001395  72.4787 287.6354 15.06400149112736","SEMIMAJOR_AXIS":"6925.348","CENTER_NAME":"EARTH","LAUNCH_DATE":"2020-01-29","REF_FRAME":"TEME","INCLINATION":"53.0538","SITE":"AFETR","REV_AT_EPOCH":"11273","MEAN_MOTION":"15.06400149","ELEMENT_SET_NO":"999","PERIOD":"95.592","OBJECT_ID":"2020-006AJ","BSTAR":"0.00013721000000","MEAN_MOTION_DDOT":"0.0000000000000","MEAN_MOTION_DOT":"0.00001763","RCS_SIZE":"LARGE","GP_ID":"195816959","NORAD_CAT_ID":"45076","DECAY_DATE":null,"RA_OF_ASC_NODE":"98.4933","OBJECT_TYPE":"PAYLOAD","COUNTRY_CODE":"US","MEAN_ELEMENT_THEORY":"SGP4"},{"FILE":"3298493","CLASSIFICATION_TYPE":"U","APOAPSIS":"329.983","OBJECT_NAME":"STARLINK-1182","ARG_OF_PERICENTER":"276.8844","ECCENTRICITY":"0.00069970","EPOCH":"2022-02-12T13:25:15.538368","TLE_LINE1":"1 45077U 20006AK  22043.55920762  .00300344  00000-0  14081-2 0  9998","EPHEMERIS_TYPE":"0","PERIAPSIS":"320.602","TIME_SYSTEM":"UTC","LAUNCH_DATE":"2020-01-29","REF_FRAME":"TEME","SEMIMAJOR_AXIS":"6703.427","TLE_LINE2":"2 45077  53.0551  40.7410 0006997 276.8844  83.1381 15.81821260113553","CENTER_NAME":"EARTH","MEAN_ANOMALY":"83.1381","REV_AT_EPOCH":"11355","SITE":"AFETR","INCLINATION":"53.0551","PERIOD":"91.034","ELEMENT_SET_NO":"999","MEAN_MOTION":"15.81821260","OBJECT_ID":"2020-006AK","BSTAR":"0.00140810000000","MEAN_MOTION_DDOT":"0.0000000000000","GP_ID":"195817209","RCS_SIZE":"LARGE","MEAN_MOTION_DOT":"0.00300344","DECAY_DATE":null,"NORAD_CAT_ID":"45077","RA_OF_ASC_NODE":"40.7410","MEAN_ELEMENT_THEORY":"SGP4","COUNTRY_CODE":"US","OBJECT_TYPE":"PAYLOAD"},{"MEAN_MOTION":"15.06414988","ELEMENT_SET_NO":"999","PERIOD":"95.591","INCLINATION":"53.0555","SITE":"AFETR","REV_AT_EPOCH":"11271","SEMIMAJOR_AXIS":"6925.303","TLE_LINE2":"2 45078  53.0555  98.7238 0001630  59.3795 300.7354 15.06414988112714","CENTER_NAME":"EARTH","MEAN_ANOMALY":"300.7354","LAUNCH_DATE":"2020-01-29","REF_FRAME":"TEME","TIME_SYSTEM":"UTC","PERIAPSIS":"546.039","EPHEMERIS_TYPE":"0","TLE_LINE1":"1 45078U 20006AL  22043.42731214  .00003676  00000-0  26547-3 0  9996","EPOCH":"2022-02-12T10:15:19.768896","ECCENTRICITY":"0.00016300","ARG_OF_PERICENTER":"59.3795","OBJECT_NAME":"STARLINK-1177","APOAPSIS":"548.296","FILE":"3298493","CLASSIFICATION_TYPE":"U","OBJECT_TYPE":"PAYLOAD","COUNTRY_CODE":"US","MEAN_ELEMENT_THEORY":"SGP4","RA_OF_ASC_NODE":"98.7238","NORAD_CAT_ID":"45078","DECAY_DATE":null,"MEAN_MOTION_DOT":"0.00003676","GP_ID":"195819461","RCS_SIZE":"LARGE","MEAN_MOTION_DDOT":"0.0000000000000","BSTAR":"0.00026547000000","OBJECT_ID":"2020-006AL"},{"INCLINATION":"53.0528","SITE":"AFETR","REV_AT_EPOCH":"11273","MEAN_MOTION":"15.06554384","ELEMENT_SET_NO":"999","PERIOD":"95.582","TIME_SYSTEM":"UTC","TLE_LINE2":"2 45079  53.0528  98.2074 0001169  81.2215 278.8907 15.06554384112732","SEMIMAJOR_AXIS":"6924.875","MEAN_ANOMALY":"278.8907","CENTER_NAME":"EARTH","REF_FRAME":"TEME","LAUNCH_DATE":"2020-01-29","ECCENTRICITY":"0.00011690","PERIAPSIS":"545.931","EPHEMERIS_TYPE":"0","TLE_LINE1":"1 45079U 20006AM  22043.53744009  .00006739  00000-0  46892-3 0  9993","EPOCH":"2022-02-12T12:53:54.823776","FILE":"3298493","CLASSIFICATION_TYPE":"U","ARG_OF_PERICENTER":"81.2215","OBJECT_NAME":"STARLINK-1149","APOAPSIS":"547.550","RA_OF_ASC_NODE":"98.2074","OBJECT_TYPE":"PAYLOAD","COUNTRY_CODE":"US","MEAN_ELEMENT_THEORY":"SGP4","MEAN_MOTION_DOT":"0.00006739","RCS_SIZE":"LARGE","GP_ID":"195818211","NORAD_CAT_ID":"45079","DECAY_DATE":null,"MEAN_MOTION_DDOT":"0.0000000000000","OBJECT_ID":"2020-006AM","BSTAR":"0.00046892000000"},{"TIME_SYSTEM":"UTC","SEMIMAJOR_AXIS":"6925.281","TLE_LINE2":"2 45080  53.0535  98.4757 0001581  57.1696 302.9445 15.06421928112738","MEAN_ANOMALY":"302.9445","CENTER_NAME":"EARTH","REF_FRAME":"TEME","LAUNCH_DATE":"2020-01-29","INCLINATION":"53.0535","SITE":"AFETR","REV_AT_EPOCH":"11273","ELEMENT_SET_NO":"999","PERIOD":"95.591","MEAN_MOTION":"15.06421928","FILE":"3298493","CLASSIFICATION_TYPE":"U","APOAPSIS":"548.241","OBJECT_NAME":"STARLINK-1153","ARG_OF_PERICENTER":"57.1696","ECCENTRICITY":"0.00015810","EPOCH":"2022-02-12T11:29:38.980896","EPHEMERIS_TYPE":"0","PERIAPSIS":"546.051","TLE_LINE1":"1 45080U 20006AN  22043.47892339  .00007515  00000-0  52256-3 0  9992","MEAN_MOTION_DOT":"0.00007515","RCS_SIZE":"LARGE","GP_ID":"195818460","DECAY_DATE":null,"NORAD_CAT_ID":"45080","RA_OF_ASC_NODE":"98.4757","MEAN_ELEMENT_THEORY":"SGP4","OBJECT_TYPE":"PAYLOAD","COUNTRY_CODE":"US","BSTAR":"0.00052256000000","OBJECT_ID":"2020-006AN","MEAN_MOTION_DDOT":"0.0000000000000"},{"SITE":"AFETR","INCLINATION":"53.0544","REV_AT_EPOCH":"11274","ELEMENT_SET_NO":"999","PERIOD":"95.592","MEAN_MOTION":"15.06409055","TIME_SYSTEM":"UTC","SEMIMAJOR_AXIS":"6925.321","TLE_LINE2":"2 45081  53.0544  98.2952 0001459  72.3536 287.7612 15.06409055112744","CENTER_NAME":"EARTH","MEAN_ANOMALY":"287.7612","REF_FRAME":"TEME","LAUNCH_DATE":"2020-01-29","ECCENTRICITY":"0.00014590","EPOCH":"2022-02-12T12:33:20.238624","PERIAPSIS":"546.175","EPHEMERIS_TYPE":"0","TLE_LINE1":"1 45081U 20006AP  22043.52315091 -.00002250  00000-0 -13216-3 0  9990","FILE":"3298493","CLASSIFICATION_TYPE":"U","APOAPSIS":"548.196","ARG_OF_PERICENTER":"72.3536","OBJECT_NAME":"STARLINK-1151","RA_OF_ASC_NODE":"98.2952","MEAN_ELEMENT_THEORY":"SGP4","OBJECT_TYPE":"PAYLOAD","COUNTRY_CODE":"US","MEAN_MOTION_DOT":"-0.00002250","RCS_SIZE":"LARGE","GP_ID":"195818710","DECAY_DATE":null,"NORAD_CAT_ID":"45081","MEAN_MOTION_DDOT":"0.0000000000000","OBJECT_ID":"2020-006AP","BSTAR":"-0.00013216000000"}];
